TDRS 3                  
1 19548U 88091B   18114.46816125 -.00000317  00000-0  00000-0 0  9993
2 19548  14.4380   4.8227 0038213 318.5535 355.3368  1.00276008 95561
SKYNET 4C               
1 20776U 90079A   18112.35874563  .00000113  00000-0  00000+0 0  9995
2 20776  13.9318  13.0666 0003051   0.4377 359.5195  1.00276141101080
TDRS 5                  
1 21639U 91054B   18114.73138566  .00000068  00000-0  00000+0 0  9997
2 21639  14.5439  18.1755 0025409 347.4485 302.6093  1.00272340 97874
TDRS 6                  
1 22314U 93003B   18114.79114720 -.00000310  00000-0  00000-0 0  9998
2 22314  14.1022  21.1656 0006876 339.9145  90.3268  1.00264297 92613
ASTRA 1D                
1 23331U 94070A   18114.39353792 -.00000284  00000-0  00000-0 0  9993
2 23331   8.0206  47.1063 0003872 344.1328 249.7993  1.00273626 86448
BRASILSAT B2            
1 23536U 95016A   18114.73991733 -.00000298  00000-0  00000-0 0  9997
2 23536   7.6482  49.0360 0002551 342.6473  19.3992  1.00272609 84565
AMSC 1                  
1 23553U 95019A   18113.80191325 -.00000132  00000-0  00000+0 0  9991
2 23553  10.4535  37.2179 0006213   2.3821 357.5556  1.00273004 84325
TDRS 7                  
1 23613U 95035B   18115.07160444 -.00000218  00000-0  00000+0 0  9990
2 23613  15.0602  11.8597 0032385   6.9664 304.6744  1.00277403 83311
INMARSAT 3-F1           
1 23839U 96020A   18115.00274737 -.00000014  00000-0  00000+0 0  9993
2 23839   4.5743  66.0592 0006194 329.5950 242.8078  1.00274096 80784
ASTRA 1F                
1 23842U 96021A   18114.95447326  .00000115  00000-0  00000-0 0  9999
2 23842   0.0670  64.9803 0003748 326.2827 209.5703  1.00272835 22510
MSAT M1                 
1 23846U 96022A   18113.83932966 -.00000102  00000-0  00000-0 0  9996
2 23846   8.2068  46.5751 0006160 348.9258  10.9921  1.00272304 80570
INMARSAT 3-F2           
1 24307U 96053A   18115.10745678 -.00000146  00000-0  00000+0 0  9994
2 24307   3.2629  76.1409 0007293 306.5935 213.5376  1.00272075 79196
AMC-1 (GE-1)            
1 24315U 96054A   18115.00418415  .00000045  00000-0  00000+0 0  9996
2 24315   2.2241  83.4280 0002879 296.2483  63.8951  1.00271880 79198
AFRICASAT-2 (MEASAT-2)  
1 24653U 96063B   18114.66043406 -.00000245  00000-0  00000+0 0  9999
2 24653   7.9483  47.5085 0006456 216.0710 334.8163  1.00273517 78515
INMARSAT 3-F3           
1 24674U 96070A   18115.49428712  .00000015  00000-0  00000+0 0  9993
2 24674   4.0442  70.2508 0005855 329.9861 169.2417  1.00271254 78133
AMC-2 (GE-2)            
1 24713U 97002A   18115.09850010 -.00000232  00000-0  00000+0 0  9991
2 24713   4.9130  64.3354 0005166 327.5674 131.7768  1.00271279 28498
INTELSAT 26 (IS-26)     
1 24732U 97007A   18114.89780414 -.00000030  00000-0  00000+0 0  9990
2 24732   7.9289  47.8609 0006265   6.6259 187.3745  1.00273221 77441
GALAXY 25 (G-25)        
1 24812U 97026A   18114.66795334 -.00000186  00000-0  00000-0 0  9995
2 24812   0.1457  93.3061 0003493 299.9408 326.7697  1.00272460 76531
INTELSAT 5 (IS-5)       
1 24916U 97046A   18114.59212840 -.00000008  00000-0  00000+0 0  9992
2 24916   4.1542  69.5562 0004064 313.4810 207.6570  1.00712046 75771
AMC-3 (GE-3)            
1 24936U 97050A   18115.16857091 -.00000283  00000-0  00000+0 0  9991
2 24936   1.0464  90.8340 0002701 292.4615 178.5236  1.00271124 75613
NSS-5                   
1 24957U 97053A   18115.13869314  .00000086  00000-0  00000+0 0  9995
2 24957   4.4400  67.7520 0004072 332.6102 273.2028  1.00276033 75400
ASTRA 1G                
1 25071U 97076A   18115.13869314  .00000086  00000-0  00000+0 0  9998
2 25071   2.9630  77.1509 0003256 312.1815 284.5850  1.00272578 74705
BRASILSAT B3            
1 25152U 98006A   18113.77264439 -.00000303  00000-0  00000+0 0  9990
2 25152   4.6126  66.7568 0002525 324.6703  35.2881  1.00272554 74085
INMARSAT 3-F5           
1 25153U 98006B   18115.40987735 -.00000309  00000-0  00000+0 0  9990
2 25153   3.2007  73.4035 0005259 321.8473 271.6734  1.00273052 74057
NSS-806                 
1 25239U 98014A   18115.41118589 -.00000303  00000-0  00000+0 0  9992
2 25239   0.0658  48.5573 0004674 345.4504 279.8699  1.00273580 73826
CHINASAT 5A (ZX 5A)     
1 25354U 98033A   18114.95727618 -.00000376  00000-0  00000-0 0  9999
2 25354   1.9038  85.3241 0003322 248.1399 349.5903  1.00274551 77407
THOR III                
1 25358U 98035A   18114.58065117 -.00000063  00000-0  00000-0 0  9996
2 25358   5.9522  57.3310 0002618 336.7928  23.1391  1.00272495 73012
INTELSAT 805 (IS-805)   
1 25371U 98037A   18114.68865664 -.00000054  00000-0  00000-0 0  9999
2 25371   0.6814  93.1955 0003399 294.2272 242.1420  1.00272003 72710
ASTRA 2A                
1 25462U 98050A   18115.00813587 -.00000383  00000-0  00000+0 0  9993
2 25462   0.0662 251.4647 0002439 141.9567 295.9656  1.00268740 71902
JCSAT-4A                
1 25630U 99006A   18114.86705601 -.00000225  00000-0  00000-0 0  9998
2 25630   2.9380  78.4348 0005525 306.2886 290.2342  1.00270465 20777
SKYNET 4E               
1 25639U 99009B   18114.98966201 -.00000049  00000-0  00000+0 0  9991
2 25639  10.3869  26.2621 0004032  12.7255 168.9988  1.00273739 70181
ASIASAT 3S              
1 25657U 99013A   18114.31605787 -.00000257  00000-0  00000+0 0  9993
2 25657   3.1439  76.7561 0003724 299.3278  96.0311  1.00269691 69981
NIMIQ 1                 
1 25740U 99027A   18115.16920920 -.00000223  00000-0  00000+0 0  9997
2 25740   0.0179 283.3760 0005317 117.2357 146.9206  1.00271961 69378
ASTRA 1H                
1 25785U 99033A   18114.83298653 -.00000296  00000-0  00000-0 0  9998
2 25785   4.4234  67.9011 0002730 318.5791  59.0581  1.00268159 21582
ABS-7                   
1 25894U 99046A   18114.92885038 -.00000386  00000-0  00000-0 0  9992
2 25894   0.0468  74.0014 0002737 319.0549 270.3348  1.00269248 67297
ABS-6                   
1 25924U 99053A   18114.96672579 -.00000144  00000-0  00000+0 0  9993
2 25924   0.0439  73.5874 0002698 328.3112 318.1164  1.00269057 68041
TELSTAR 12 (ORION 2)    
1 25949U 99059A   18115.55478557 -.00000085  00000-0  00000+0 0  9996
2 25949   1.6001  87.3929 0003207 309.7913 266.8620  1.00272259 67709
AMC-4 (GE-4)            
1 25954U 99060A   18114.78375775  .00000064  00000-0  00000+0 0  9992
2 25954   0.0528  79.5934 0002728 305.8782 334.5364  1.00270433 67653
GALAXY 11 (G-11)        
1 26038U 99071A   18114.95447752  .00000113  00000-0  00000-0 0  9998
2 26038   0.1131  87.0200 0000596 237.4639 276.9482  1.00271733 67261
SUPERBIRD-B2            
1 26095U 00012A   18115.11368865 -.00000116  00000-0  00000+0 0  9997
2 26095   1.0694  91.5853 0003711 319.2674   5.1245  1.00272107 66604
ASIASTAR                
1 26107U 00016A   18115.08265536 -.00000355  00000-0  00000+0 0  9997
2 26107   2.3232  81.0384 0004333 306.1023 320.6823  1.00271158 66328
EUTELSAT 80A            
1 26369U 00028A   18114.84380376 -.00000125  00000-0  00000-0 0  9999
2 26369   1.6712  84.9517 0006917 305.5285 113.4097  1.00271942 65608
TDRS 8                  
1 26388U 00034A   18114.31010934 -.00000247  00000-0  00000-0 0  9994
2 26388   8.0034  53.2778 0009301 292.8645  66.9756  1.00268056 65340
ECHOSTAR 6              
1 26402U 00038A   18115.57211854 -.00000169  00000-0  00000+0 0  9990
2 26402   4.7740  65.5117 0003483 301.9347 315.8342  1.00272041 65080
INTELSAT 9 (IS-9)       
1 26451U 00043A   18115.05587396 -.00000237  00000-0  00000+0 0  9996
2 26451   4.1422  69.7765 0003447 333.0473 160.8176  1.00271986 65019
BRASILSAT B4            
1 26469U 00046A   18113.89858248 -.00000191  00000-0  00000-0 0  9995
2 26469   2.3047  83.2601 0003099 307.2070  52.9101  1.00273038 65121
NILESAT 102             
1 26470U 00046B   18114.62963983 -.00000080  00000-0  00000-0 0  9999
2 26470   2.3341  82.1896 0004866 307.7311  42.3740  1.00273085 15354
ASTRA 2B                
1 26494U 00054A   18115.41772858 -.00000114  00000-0  00000+0 0  9998
2 26494   2.8544  77.8148 0002143 237.5165  33.3858  1.00436871 64408
AMC-7 (GE-7)            
1 26495U 00054B   18114.78404285  .00000064  00000-0  00000-0 0  9998
2 26495   0.0841  87.0443 0001232 256.3706  16.5756  1.00271376 64393
NSS-11 (AAP-1)          
1 26554U 00059A   18114.80969456  .00000001  00000-0  00000-0 0  9999
2 26554   0.0103 126.9073 0002801 268.5695 284.7936  1.00272124 11468
N-SAT-110 (JCSAT-110)   
1 26559U 00060A   18115.56475450 -.00000375  00000-0  00000+0 0  9990
2 26559   0.0866  92.4198 0001236 342.9646  91.5117  1.00272172 64284
AMC-6 (GE-6)            
1 26580U 00067A   18114.61785300 -.00000239  00000-0  00000+0 0  9993
2 26580   0.0178 109.0474 0002579 291.9388 311.0310  1.00269009 64148
INTELSAT 12 (IS-12)     
1 26590U 00068A   18114.84030017  .00000113  00000-0  00000-0 0  9999
2 26590   1.1539  90.8764 0004567 319.2752 150.1471  1.00271867 21888
INTELSAT 1R (IS-1R)     
1 26608U 00072A   18114.82407080 -.00000161  00000-0  00000-0 0  9994
2 26608   0.9700  92.2512 0002258 288.3660 285.9382  1.00271871 11489
ANIK F1                 
1 26624U 00076A   18114.70735384 -.00000098  00000-0  00000+0 0  9992
2 26624   0.0169 174.8237 0001691 247.9634 297.2246  1.00271787 63893
ASTRA 2D                
1 26638U 00081A   18114.43466188  .00000027  00000-0  00000+0 0  9997
2 26638   4.2512  68.5948 0001770 319.8590  40.1171  1.00273332 63555
AMC-8 (GE-8)            
1 26639U 00081B   18114.85695426  .00000080  00000-0  00000-0 0  9993
2 26639   0.0421  78.2470 0001352 263.5763  40.5042  1.00270618 63500
SKYNET 4F               
1 26695U 01005B   18114.15155573 -.00000267  00000-0  00000+0 0  9996
2 26695   9.2383  34.4988 0002708 350.2853 207.9083  1.00269262 63033
EUTELSAT 33C            
1 26719U 01011A   18115.49911958  .00000131  00000-0  00000+0 0  9994
2 26719   0.2120  81.1410 0006549 321.7763  23.2972  1.00271822 62758
